NORAD_CAT_ID,OBJECT_NAME,OBJECT_TYPE,EPOCH,MEAN_MOTION,ECCENTRICITY,INCLINATION,RA_OF_ASC_NODE,ARG_OF_PERICENTER,MEAN_ANOMALY,BSTAR,MEAN_MOTION_DOT,MEAN_MOTION_DDOT,TLE_LINE0,TLE_LINE1,TLE_LINE2,SEMIMAJOR_AXIS,PERIOD,APOGEE,PERIGEE,DECAYED
50203.0,STARLINK-3257,PAYLOAD,2023-09-22 20:52:51,15.08844722,0.0001647,53.2174,314.0792,96.7165,263.4015,0.00023131,3.396e-05,0.0,0 STARLINK-3257,1 50203U 21125AZ  23265.87003732  .00003396  00000-0  23131-3 0  9993,2 50203  53.2174 314.0792 0001647  96.7165 263.4015 15.08844722101107,6917.866,95.437,540.87,538.592,0.0
50203.0,STARLINK-3257,PAYLOAD,2023-09-23 03:14:23,15.08848576,0.0001473,53.2158,312.8915,108.1934,251.9218,0.00010979,1.46e-05,0.0,0 STARLINK-3257,1 50203U 21125AZ  23266.13499438  .00001460  00000-0  10979-3 0  9991,2 50203  53.2158 312.8915 0001473 108.1934 251.9218 15.08848576 98003,6917.854,95.437,540.738,538.7,0.0
50203.0,STARLINK-3257,PAYLOAD,2023-09-23 09:35:55,15.08858157,0.0001243,53.2173,311.6994,84.5166,275.5967,0.00026144,3.877e-05,0.0,0 STARLINK-3257,1 50203U 21125AZ  23266.39994860  .00003877  00000-0  26144-3 0  9993,2 50203  53.2173 311.6994 0001243  84.5166 275.5967 15.08858157101186,6917.825,95.436,540.55,538.83,0.0
50203.0,STARLINK-3257,PAYLOAD,2023-09-24 03:05:10,15.08842009,0.0001536,53.2157,308.4296,103.8415,256.2748,8.9458e-05,1.136e-05,0.0,0 STARLINK-3257,1 50203U 21125AZ  23267.12859542  .00001136  00000-0  89458-4 0  9996,2 50203  53.2157 308.4296 0001536 103.8415 256.2748 15.08842009 98158,6917.874,95.437,540.802,538.677,0.0
50203.0,STARLINK-3257,PAYLOAD,2023-09-24 09:26:43,15.08844714,0.0001515,53.2169,307.2417,95.8203,264.2962,7.8697e-05,9.65e-06,0.0,0 STARLINK-3257,1 50203U 21125AZ  23267.39355424  .00000965  00000-0  78697-4 0  9997,2 50203  53.2169 307.2417 0001515  95.8203 264.2962 15.08844714101332,6917.866,95.437,540.779,538.683,0.0
50203.0,STARLINK-3257,PAYLOAD,2023-09-25 09:17:30,15.0884731,0.0001293,53.2164,302.7813,95.4648,264.6492,0.00019406,2.803e-05,0.0,0 STARLINK-3257,1 50203U 21125AZ  23268.38715467  .00002803  00000-0  19406-3 0  9999,2 50203  53.2164 302.7813 0001293  95.4648 264.6492 15.08847310 98342,6917.858,95.437,540.618,538.829,0.0
50203.0,STARLINK-3257,PAYLOAD,2023-09-25 18:49:48,15.08846477,0.0001359,53.2167,300.9983,88.1313,271.9835,1.3689e-05,-7e-07,0.0,0 STARLINK-3257,1 50203U 21125AZ  23268.78459145 -.00000070  00000-0  13689-4 0  9994,2 50203  53.2167 300.9983 0001359  88.1313 271.9835 15.08846477101546,6917.861,95.437,540.666,538.785,0.0
50203.0,STARLINK-3257,PAYLOAD,2023-09-26 02:46:44,15.08836874,0.0001435,53.2168,299.5134,92.1146,268.001,7.7341e-05,9.43e-06,0.0,0 STARLINK-3257,1 50203U 21125AZ  23269.11579748  .00000943  00000-0  77341-4 0  9997,2 50203  53.2168 299.5134 0001435  92.1146 268.0010 15.08836874 98459,6917.89,95.438,540.748,538.762,0.0
50203.0,STARLINK-3257,PAYLOAD,2023-09-26 09:08:17,15.08844524,0.0001795,53.2168,298.3245,100.8116,259.3078,1.6516e-05,-2.5e-07,0.0,0 STARLINK-3257,1 50203U 21125AZ  23269.38075350 -.00000025  00000-0  16516-4 0  9995,2 50203  53.2168 298.3245 0001795 100.8116 259.3078 15.08844524101635,6917.867,95.437,540.973,538.49,0.0
50203.0,STARLINK-3257,PAYLOAD,2023-09-27 08:59:04,15.08833692,0.0001592,53.2171,293.8629,100.53,259.5872,6.6351e-05,7.68e-06,0.0,0 STARLINK-3257,1 50203U 21125AZ  23270.37436201  .00000768  00000-0  66351-4 0  9997,2 50203  53.2171 293.8629 0001592 100.5300 259.5872 15.08833692 98646,6917.9,95.438,540.866,538.663,0.0
50203.0,STARLINK-3257,PAYLOAD,2023-09-27 12:09:50,15.08840029,0.0001495,53.2167,293.2661,98.0427,262.0734,8.4389e-05,1.055e-05,0.0,0 STARLINK-3257,1 50203U 21125AZ  23270.50683738  .00001055  00000-0  84389-4 0  9992,2 50203  53.2167 293.2661 0001495  98.0427 262.0734 15.08840029101805,6917.88,95.438,540.78,538.711,0.0
50203.0,STARLINK-3257,PAYLOAD,2023-09-28 08:49:52,15.08829769,0.0001436,53.2165,289.3985,93.8578,266.2578,3.0769e-05,2.02e-06,0.0,0 STARLINK-3257,1 50203U 21125AZ  23271.36796892  .00000202  00000-0  30769-4 0  9999,2 50203  53.2165 289.3985 0001436  93.8578 266.2578 15.08829769 98796,6917.912,95.438,540.77,538.783,0.0
50203.0,STARLINK-3257,PAYLOAD,2023-09-29 08:40:38,15.08845502,0.0001603,53.2174,284.9362,81.601,278.5163,0.00012504,1.703e-05,0.0,0 STARLINK-3257,1 50203U 21125AZ  23272.36156017  .00001703  00000-0  12504-3 0  9992,2 50203  53.2174 284.9362 0001603  81.6010 278.5163 15.08845502 98944,6917.864,95.437,540.838,538.62,0.0
50203.0,STARLINK-3257,PAYLOAD,2023-09-30 05:20:39,15.08843864,0.000164,53.2168,281.0678,119.6586,240.457,0.00010382,1.365e-05,0.0,0 STARLINK-3257,1 50203U 21125AZ  23273.22267890  .00001365  00000-0  10382-3 0  9996,2 50203  53.2168 281.0678 0001640 119.6586 240.4570 15.08843864102211,6917.869,95.437,540.868,538.599,0.0
50203.0,STARLINK-3257,PAYLOAD,2023-09-30 18:03:45,15.08841509,0.0001765,53.2168,278.6958,69.1173,291.0008,7.4588e-05,8.99e-06,0.0,0 STARLINK-3257,1 50203U 21125AZ  23273.75260450  .00000899  00000-0  74588-4 0  9999,2 50203  53.2168 278.6958 0001765  69.1173 291.0008 15.08841509 99153,6917.876,95.437,540.962,538.52,0.0
50203.0,STARLINK-3257,PAYLOAD,2023-10-01 09:57:36,15.0884539,0.0001585,53.2172,275.718,104.3397,255.7771,-3.2113e-05,-7.99e-06,0.0,0 STARLINK-3257,1 50203U 21125AZ  23274.41500241 -.00000799  00000-0 -32113-4 0  9997,2 50203  53.2172 275.7180 0001585 104.3397 255.7771 15.08845390102390,6917.864,95.437,540.825,538.632,0.0
50203.0,STARLINK-3257,PAYLOAD,2023-10-02 00:16:04,15.08835937,0.0001672,53.2173,273.041,95.1649,264.9534,-9.6672e-06,-4.42e-06,0.0,0 STARLINK-3257,1 50203U 21125AZ  23275.01116819 -.00000442  00000-0 -96672-5 0  9994,2 50203  53.2173 273.0410 0001672  95.1649 264.9534 15.08835937 99347,6917.893,95.438,540.914,538.601,0.0
50203.0,STARLINK-3257,PAYLOAD,2023-10-02 11:23:46,15.08842207,0.0001631,53.2166,270.9594,106.5765,253.5406,8.2185e-05,1.02e-05,0.0,0 STARLINK-3257,1 50203U 21125AZ  23275.47484151  .00001020  00000-0  82185-4 0  9995,2 50203  53.2166 270.9594 0001631 106.5765 253.5406 15.08842207 99417,6917.874,95.437,540.867,538.61,0.0
50203.0,STARLINK-3257,PAYLOAD,2023-10-03 11:14:32,15.08851624,0.0001552,53.2157,266.5013,94.3154,265.8016,0.00016718,2.374e-05,0.0,0 STARLINK-3257,1 50203U 21125AZ  23276.46843483  .00002374  00000-0  16718-3 0  9993,2 50203  53.2157 266.5013 0001552  94.3154 265.8016 15.08851624102705,6917.845,95.437,540.784,538.636,0.0
50203.0,STARLINK-3257,PAYLOAD,2023-10-03 16:00:44,15.08829181,0.0002594,53.2165,265.607,81.3034,278.8251,-3.1562e-06,-3.39e-06,0.0,0 STARLINK-3257,1 50203U 21125AZ  23276.66717783 -.00000339  00000-0 -31562-5 0  9995,2 50203  53.2165 265.6070 0002594  81.3034 278.8251 15.08829181 99597,6917.913,95.438,541.573,537.984,0.0
50203.0,STARLINK-3257,PAYLOAD,2023-10-04 11:05:21,15.08834505,0.0001922,53.2167,262.0413,80.1331,279.9878,3.49e-05,2.67e-06,0.0,0 STARLINK-3257,1 50203U 21125AZ  23277.46205523  .00000267  00000-0  34900-4 0  9994,2 50203  53.2167 262.0413 0001922  80.1331 279.9878 15.08834505102859,6917.897,95.438,541.092,538.433,0.0
50203.0,STARLINK-3257,PAYLOAD,2023-10-04 22:13:03,15.08835559,0.0001735,53.2162,259.9598,87.4761,272.6429,8.9702e-05,1.14e-05,0.0,0 STARLINK-3257,1 50203U 21125AZ  23277.92573391  .00001140  00000-0  89702-4 0  9997,2 50203  53.2162 259.9598 0001735  87.4761 272.6429 15.08835559102922,6917.894,95.438,540.959,538.559,0.0
50203.0,STARLINK-3257,PAYLOAD,2023-10-05 04:34:35,15.08845028,0.0001687,53.2166,258.7709,87.025,273.0935,6.2582e-05,7.08e-06,0.0,0 STARLINK-3257,1 50203U 21125AZ  23278.19068981  .00000708  00000-0  62582-4 0  9997,2 50203  53.2166 258.7709 0001687  87.0250 273.0935 15.08845028 99825,6917.865,95.437,540.897,538.563,0.0
50203.0,STARLINK-3257,PAYLOAD,2023-10-05 07:45:21,15.08851497,0.0001703,53.2163,258.1751,90.4985,269.6203,0.00017481,2.496e-05,0.0,0 STARLINK-3257,1 50203U 21125AZ  23278.32316367  .00002496  00000-0  17481-3 0  9999,2 50203  53.2163 258.1751 0001703  90.4985 269.6203 15.08851497 99843,6917.845,95.437,540.888,538.532,0.0
50203.0,STARLINK-3257,PAYLOAD,2023-10-05 15:42:17,15.08846124,0.0001941,53.2164,256.688,85.0965,275.0249,6.2408e-05,7.05e-06,0.0,0 STARLINK-3257,1 50203U 21125AZ  23278.65436675  .00000705  00000-0  62408-4 0  9991,2 50203  53.2164 256.6880 0001941  85.0965 275.0249 15.08846124 99899,6917.862,95.437,541.069,538.384,0.0
50203.0,STARLINK-3257,PAYLOAD,2023-10-06 04:25:22,15.08838706,0.0001909,53.2168,254.3125,72.7258,287.3943,6.8837e-05,8.08e-06,0.0,0 STARLINK-3257,1 50203U 21125AZ  23279.18429202  .00000808  00000-0  68837-4 0  9994,2 50203  53.2168 254.3125 0001909  72.7258 287.3943 15.08838706 99975,6917.884,95.438,541.07,538.429,0.0
50203.0,STARLINK-3257,PAYLOAD,2023-10-06 10:46:54,15.08849385,0.0001722,53.2153,253.1193,86.4875,273.6314,0.00024564,3.624e-05,0.0,0 STARLINK-3257,1 50203U 21125AZ  23279.44924560  .00003624  00000-0  24564-3 0  9997,2 50203  53.2153 253.1193 0001722  86.4875 273.6314 15.08849385100014,6917.852,95.437,540.908,538.525,0.0
50203.0,STARLINK-3257,PAYLOAD,2023-10-06 15:33:05,15.08824666,0.0001413,53.216,252.2275,88.6529,271.4625,-0.0002007,-3.479e-05,0.0,0 STARLINK-3257,1 50203U 21125AZ  23279.64797520 -.00003479  00000-0 -20070-3 0  9991,2 50203  53.2160 252.2275 0001413  88.6529 271.4625 15.08824666100049,6917.927,95.439,540.77,538.815,0.0
50203.0,STARLINK-3257,PAYLOAD,2023-10-06 21:54:37,15.08826699,0.0001153,53.2162,251.038,88.9399,271.1725,-0.00013213,-2.389e-05,0.0,0 STARLINK-3257,1 50203U 21125AZ  23279.91293608 -.00002389  00000-0 -13213-3 0  9999,2 50203  53.2162 251.0380 0001153  88.9399 271.1725 15.08826699103223,6917.921,95.438,540.584,538.988,0.0
50203.0,STARLINK-3257,PAYLOAD,2023-10-07 10:37:42,15.08846513,0.0001322,53.2146,248.6587,88.374,271.7404,0.00062656,9.7e-05,0.0,0 STARLINK-3257,1 50203U 21125AZ  23280.44285219  .00009700  00000-0  62656-3 0  9995,2 50203  53.2146 248.6587 0001322  88.3740 271.7404 15.08846513100165,6917.86,95.437,540.64,538.811,0.0
